{
  "norad_id": 63152,
  "name": "STARLINK-32915",
  "history": [
    {
      "epoch": "2026-03-28T18:52:44.212512",
      "apogee_km": 483.90100043765415,
      "perigee_km": 482.12259066984734,
      "latitude_deg": 42.52719545575742,
      "longitude_deg": -149.28420832008123,
      "semi_major_axis_km": 6861.1487955537505,
      "eccentricity": 0.0001296,
      "inclination_deg": 43.0017,
      "raan_deg": 275.2045,
      "arg_perigee_deg": 264.4021,
      "mean_anomaly_deg": 95.6683,
      "mean_motion_rev_day": 15.27592457
    }
  ]
}